{
  "norad_id": 63191,
  "name": "STARLINK-11647 [DTC]",
  "history": [
    {
      "epoch": "2026-04-14T16:24:48.362976Z",
      "apogee_km": 357.02847403147643,
      "perigee_km": 355.8014386650311,
      "latitude_deg": -1.0042412796299748e-05,
      "longitude_deg": 13.73578847628152,
      "height_km": 355.7504705059668,
      "semi_major_axis_km": 6734.551956348254,
      "eccentricity": 9.11e-05,
      "inclination_deg": 43.0008,
      "raan_deg": 102.7941,
      "arg_perigee_deg": 315.3435,
      "mean_anomaly_deg": 44.7359,
      "mean_motion_rev_day": 15.70868027
    },
    {
      "epoch": "2026-04-15T10:43:30.400896Z",
      "apogee_km": 358.66600760936853,
      "perigee_km": 353.9724956693499,
      "latitude_deg": 3.51211372351778e-05,
      "longitude_deg": 93.70934614226537,
      "height_km": 356.56226615252206,
      "semi_major_axis_km": 6734.456251639359,
      "eccentricity": 0.00034847,
      "inclination_deg": 43.0038,
      "raan_deg": 98.1948,
      "arg_perigee_deg": 258.4765,
      "mean_anomaly_deg": 101.5712,
      "mean_motion_rev_day": 15.70901513
    },
    {
      "epoch": "2026-04-16T09:36:54.512352Z",
      "apogee_km": 357.7631319657294,
      "perigee_km": 354.97100657860847,
      "latitude_deg": -4.601385999173785e-05,
      "longitude_deg": 103.66843692997591,
      "height_km": 356.43941650539546,
      "semi_major_axis_km": 6734.504069272169,
      "eccentricity": 0.0002073,
      "inclination_deg": 43.0022,
      "raan_deg": 92.4445,
      "arg_perigee_deg": 257.6245,
      "mean_anomaly_deg": 102.439,
      "mean_motion_rev_day": 15.70884782
    },
    {
      "epoch": "2026-04-17T22:14:20.679072Z",
      "apogee_km": 357.3499149950276,
      "perigee_km": 355.2824378698633,
      "latitude_deg": -2.3650863961845214e-05,
      "longitude_deg": -96.39005659394749,
      "height_km": 356.56194319663246,
      "semi_major_axis_km": 6734.453176432446,
      "eccentricity": 0.0001535,
      "inclination_deg": 43.0007,
      "raan_deg": 83.2491,
      "arg_perigee_deg": 242.7487,
      "mean_anomaly_deg": 117.3224,
      "mean_motion_rev_day": 15.70902589
    },
    {
      "epoch": "2026-04-18T15:01:30.079776Z",
      "apogee_km": 356.4696373024681,
      "perigee_km": 355.93762439263173,
      "latitude_deg": -5.2456117809930174e-05,
      "longitude_deg": 6.914768916128193,
      "height_km": 355.71202185465,
      "semi_major_axis_km": 6734.34063084755,
      "eccentricity": 3.95e-05,
      "inclination_deg": 42.9989,
      "raan_deg": 79.0325,
      "arg_perigee_deg": 9.1713,
      "mean_anomaly_deg": 350.9161,
      "mean_motion_rev_day": 15.70941969
    },
    {
      "epoch": "2026-04-19T06:17:04.132896Z",
      "apogee_km": 359.01562958687464,
      "perigee_km": 353.0168458826993,
      "latitude_deg": 1.75453871580151e-06,
      "longitude_deg": 133.56215467204902,
      "height_km": 355.479305934784,
      "semi_major_axis_km": 6734.153237734787,
      "eccentricity": 0.0004454,
      "inclination_deg": 43.0005,
      "raan_deg": 75.1984,
      "arg_perigee_deg": 275.9586,
      "mean_anomaly_deg": 84.0774,
      "mean_motion_rev_day": 15.71007542
    },
    {
      "epoch": "2026-04-20T14:19:52.046688Z",
      "apogee_km": 357.01799523135287,
      "perigee_km": 355.6783714386838,
      "latitude_deg": -2.617750315520215e-05,
      "longitude_deg": 3.499072987099273,
      "height_km": 356.2364318353734,
      "semi_major_axis_km": 6734.4851833350185,
      "eccentricity": 9.946e-05,
      "inclination_deg": 42.9996,
      "raan_deg": 67.1511,
      "arg_perigee_deg": 260.0073,
      "mean_anomaly_deg": 100.0682,
      "mean_motion_rev_day": 15.7089139
    },
    {
      "epoch": "2026-04-21T20:51:02.559168Z",
      "apogee_km": 357.2143567276644,
      "perigee_km": 355.5280358753107,
      "latitude_deg": -3.1733331897791134e-05,
      "longitude_deg": -103.21133299492969,
      "height_km": 356.0858131380171,
      "semi_major_axis_km": 6734.508196301487,
      "eccentricity": 0.0001252,
      "inclination_deg": 43.0001,
      "raan_deg": 59.4879,
      "arg_perigee_deg": 273.9255,
      "mean_anomaly_deg": 86.1469,
      "mean_motion_rev_day": 15.70883338
    },
    {
      "epoch": "2026-04-22T02:57:17.199936Z",
      "apogee_km": 357.68276924783004,
      "perigee_km": 355.2502304636828,
      "latitude_deg": 3.708170916829839e-05,
      "longitude_deg": 163.44005142354123,
      "height_km": 357.0152989233549,
      "semi_major_axis_km": 6734.603499855756,
      "eccentricity": 0.0001806,
      "inclination_deg": 43.0002,
      "raan_deg": 57.9509,
      "arg_perigee_deg": 230.328,
      "mean_anomaly_deg": 129.7429,
      "mean_motion_rev_day": 15.70849993
    },
    {
      "epoch": "2026-04-23T12:31:37.337088Z",
      "apogee_km": 356.9745672277768,
      "perigee_km": 355.66175253890833,
      "latitude_deg": 4.5356081798559765e-05,
      "longitude_deg": 10.048488649843488,
      "height_km": 355.6983266566819,
      "semi_major_axis_km": 6734.455159883342,
      "eccentricity": 9.747e-05,
      "inclination_deg": 43.0001,
      "raan_deg": 49.522,
      "arg_perigee_deg": 53.5268,
      "mean_anomaly_deg": 306.569,
      "mean_motion_rev_day": 15.70901895
    },
    {
      "epoch": "2026-04-24T20:34:21.247104Z",
      "apogee_km": 359.54445712920005,
      "perigee_km": 353.279979446349,
      "latitude_deg": -7.504535408775451e-06,
      "longitude_deg": -120.00059091594231,
      "height_km": 354.8659152420343,
      "semi_major_axis_km": 6734.549218287774,
      "eccentricity": 0.0004651,
      "inclination_deg": 42.9999,
      "raan_deg": 41.472,
      "arg_perigee_deg": 294.9394,
      "mean_anomaly_deg": 65.099,
      "mean_motion_rev_day": 15.70868985
    },
    {
      "epoch": "2026-04-25T11:49:58.066752Z",
      "apogee_km": 357.21983231802733,
      "perigee_km": 355.5321633607682,
      "latitude_deg": 1.556189867482095e-05,
      "longitude_deg": 6.637403041778091,
      "height_km": 355.685174416234,
      "semi_major_axis_km": 6734.512997839397,
      "eccentricity": 0.0001253,
      "inclination_deg": 43.0007,
      "raan_deg": 37.6401,
      "arg_perigee_deg": 56.8878,
      "mean_anomaly_deg": 303.211,
      "mean_motion_rev_day": 15.70881658
    },
    {
      "epoch": "2026-04-26T18:21:08.624160Z",
      "apogee_km": 356.9829001830112,
      "perigee_km": 355.26983826714786,
      "latitude_deg": -4.930795268178039e-05,
      "longitude_deg": -100.07655034306941,
      "height_km": 356.2619022952371,
      "semi_major_axis_km": 6734.263369225079,
      "eccentricity": 0.00012719,
      "inclination_deg": 42.9989,
      "raan_deg": 29.9736,
      "arg_perigee_deg": 244.8895,
      "mean_anomaly_deg": 115.184,
      "mean_motion_rev_day": 15.70969004
    }
  ]
}